STARLINK-36475          
1 67350U 26003S   26019.58335648 -.01611414  00000+0 -67479-2 0  9996
2 67350  42.9985 151.0488 0001359 281.8854 225.1974 15.87373317  2772
STARLINK-36478          
1 67351U 26003T   26019.58335648 -.01618036  00000+0 -67721-2 0  9994
2 67351  42.9984 151.0440 0001194 285.1205 223.9376 15.87397626  2775
STARLINK-36479          
1 67352U 26003U   26019.58335648 -.01620651  00000+0 -67793-2 0  9990
2 67352  42.9985 151.0387 0001188 283.4711 227.6423 15.87413502  2780
STARLINK-36474          
1 67353U 26003V   26019.58335648 -.01633735  00000+0 -68398-2 0  9990
2 67353  42.9984 151.0330 0001037 276.3899 237.1300 15.87421842  2785
STARLINK-36448          
1 67354U 26003W   26019.58335648 -.01654275  00000+0 -69265-2 0  9997
2 67354  42.9985 151.0157 0001318 275.5266 244.7212 15.87453498  2783
STARLINK-36477          
1 67355U 26003X   26019.58335648 -.01646358  00000+0 -68994-2 0  9999
2 67355  42.9985 151.0263 0001351 281.0849 235.0408 15.87421205  2778
STARLINK-36429          
1 67356U 26003Y   26019.58335648 -.01651258  00000+0 -69182-2 0  9995
2 67356  42.9987 151.0210 0001262 281.4560 236.7728 15.87436385  2776
STARLINK-36456          
1 67357U 26003Z   26019.58335648 -.01658494  00000+0 -69451-2 0  9994
2 67357  42.9985 151.0094 0001341 281.1358 241.5024 15.87458283  2780
STARLINK-36466          
1 67358U 26003AA  26019.58335648 -.01674028  00000+0 -70196-2 0  9994
2 67358  42.9986 151.0027 0001190 279.1125 246.1133 15.87461429  2787
STARLINK-36499          
1 67359U 26003AB  26019.58335648 -.01673001  00000+0 -70097-2 0  9995
2 67359  42.9985 150.9974 0001342 277.2297 250.1152 15.87473421  2785
STARLINK-36469          
1 67360U 26003AC  26019.58335648 -.01687191  00000+0 -70767-2 0  9996
2 67360  42.9985 150.9910 0001346 276.7764 253.1121 15.87478130  2785
STARLINK-35306          
1 67361U 26003AD  26019.58335648 -.01685286  00000+0 -70643-2 0  9993
2 67361  42.9983 150.9855 0001342 279.4410 252.5076 15.87487131  2723
