CCSDS_OMM_VERS = 2.0
CREATION_DATE  = 
ORIGINATOR     = 

OBJECT_NAME    = STARLINK-36475
OBJECT_ID      = 2026-003S
CENTER_NAME    = EARTH
REF_FRAME      = TEME
TIME_SYSTEM    = UTC
MEAN_ELEMENT_THEORY = SGP/SGP4

EPOCH          = 2026-01-19T14:00:01.999872
MEAN_MOTION    = 15.87373317
ECCENTRICITY   = .00013595
INCLINATION    = 42.9985
RA_OF_ASC_NODE = 151.0488
ARG_OF_PERICENTER = 281.8854
MEAN_ANOMALY   = 225.1974

EPHEMERIS_TYPE = 0
CLASSIFICATION_TYPE = U
NORAD_CAT_ID   = 67350
ELEMENT_SET_NO = 999
REV_AT_EPOCH   = 277
BSTAR          = -.67479011E-2
MEAN_MOTION_DOT = -.1611414E-1
MEAN_MOTION_DDOT = 0

CCSDS_OMM_VERS = 2.0
CREATION_DATE  = 
ORIGINATOR     = 

OBJECT_NAME    = STARLINK-36478
OBJECT_ID      = 2026-003T
CENTER_NAME    = EARTH
REF_FRAME      = TEME
TIME_SYSTEM    = UTC
MEAN_ELEMENT_THEORY = SGP/SGP4

EPOCH          = 2026-01-19T14:00:01.999872
MEAN_MOTION    = 15.87397626
ECCENTRICITY   = .00011946
INCLINATION    = 42.9984
RA_OF_ASC_NODE = 151.0440
ARG_OF_PERICENTER = 285.1205
MEAN_ANOMALY   = 223.9376

EPHEMERIS_TYPE = 0
CLASSIFICATION_TYPE = U
NORAD_CAT_ID   = 67351
ELEMENT_SET_NO = 999
REV_AT_EPOCH   = 277
BSTAR          = -.67720903E-2
MEAN_MOTION_DOT = -.1618036E-1
MEAN_MOTION_DDOT = 0

CCSDS_OMM_VERS = 2.0
CREATION_DATE  = 
ORIGINATOR     = 

OBJECT_NAME    = STARLINK-36479
OBJECT_ID      = 2026-003U
CENTER_NAME    = EARTH
REF_FRAME      = TEME
TIME_SYSTEM    = UTC
MEAN_ELEMENT_THEORY = SGP/SGP4

EPOCH          = 2026-01-19T14:00:01.999872
MEAN_MOTION    = 15.87413502
ECCENTRICITY   = .00011884
INCLINATION    = 42.9985
RA_OF_ASC_NODE = 151.0387
ARG_OF_PERICENTER = 283.4711
MEAN_ANOMALY   = 227.6423

EPHEMERIS_TYPE = 0
CLASSIFICATION_TYPE = U
NORAD_CAT_ID   = 67352
ELEMENT_SET_NO = 999
REV_AT_EPOCH   = 278
BSTAR          = -.67792568E-2
MEAN_MOTION_DOT = -.1620651E-1
MEAN_MOTION_DDOT = 0

CCSDS_OMM_VERS = 2.0
CREATION_DATE  = 
ORIGINATOR     = 

OBJECT_NAME    = STARLINK-36474
OBJECT_ID      = 2026-003V
CENTER_NAME    = EARTH
REF_FRAME      = TEME
TIME_SYSTEM    = UTC
MEAN_ELEMENT_THEORY = SGP/SGP4

EPOCH          = 2026-01-19T14:00:01.999872
MEAN_MOTION    = 15.87421842
ECCENTRICITY   = .00010371
INCLINATION    = 42.9984
RA_OF_ASC_NODE = 151.0330
ARG_OF_PERICENTER = 276.3899
MEAN_ANOMALY   = 237.1300

EPHEMERIS_TYPE = 0
CLASSIFICATION_TYPE = U
NORAD_CAT_ID   = 67353
ELEMENT_SET_NO = 999
REV_AT_EPOCH   = 278
BSTAR          = -.68398278E-2
MEAN_MOTION_DOT = -.1633735E-1
MEAN_MOTION_DDOT = 0

CCSDS_OMM_VERS = 2.0
CREATION_DATE  = 
ORIGINATOR     = 

OBJECT_NAME    = STARLINK-36448
OBJECT_ID      = 2026-003W
CENTER_NAME    = EARTH
REF_FRAME      = TEME
TIME_SYSTEM    = UTC
MEAN_ELEMENT_THEORY = SGP/SGP4

EPOCH          = 2026-01-19T14:00:01.999872
MEAN_MOTION    = 15.87453498
ECCENTRICITY   = .00013189
INCLINATION    = 42.9985
RA_OF_ASC_NODE = 151.0157
ARG_OF_PERICENTER = 275.5266
MEAN_ANOMALY   = 244.7212

EPHEMERIS_TYPE = 0
CLASSIFICATION_TYPE = U
NORAD_CAT_ID   = 67354
ELEMENT_SET_NO = 999
REV_AT_EPOCH   = 278
BSTAR          = -.69264939E-2
MEAN_MOTION_DOT = -.1654275E-1
MEAN_MOTION_DDOT = 0

CCSDS_OMM_VERS = 2.0
CREATION_DATE  = 
ORIGINATOR     = 

OBJECT_NAME    = STARLINK-36477
OBJECT_ID      = 2026-003X
CENTER_NAME    = EARTH
REF_FRAME      = TEME
TIME_SYSTEM    = UTC
MEAN_ELEMENT_THEORY = SGP/SGP4

EPOCH          = 2026-01-19T14:00:01.999872
MEAN_MOTION    = 15.87421205
ECCENTRICITY   = .00013513
INCLINATION    = 42.9985
RA_OF_ASC_NODE = 151.0263
ARG_OF_PERICENTER = 281.0849
MEAN_ANOMALY   = 235.0408

EPHEMERIS_TYPE = 0
CLASSIFICATION_TYPE = U
NORAD_CAT_ID   = 67355
ELEMENT_SET_NO = 999
REV_AT_EPOCH   = 277
BSTAR          = -.68994295E-2
MEAN_MOTION_DOT = -.1646358E-1
MEAN_MOTION_DDOT = 0

CCSDS_OMM_VERS = 2.0
CREATION_DATE  = 
ORIGINATOR     = 

OBJECT_NAME    = STARLINK-36429
OBJECT_ID      = 2026-003Y
CENTER_NAME    = EARTH
REF_FRAME      = TEME
TIME_SYSTEM    = UTC
MEAN_ELEMENT_THEORY = SGP/SGP4

EPOCH          = 2026-01-19T14:00:01.999872
MEAN_MOTION    = 15.87436385
ECCENTRICITY   = .00012628
INCLINATION    = 42.9987
RA_OF_ASC_NODE = 151.0210
ARG_OF_PERICENTER = 281.4560
MEAN_ANOMALY   = 236.7728

EPHEMERIS_TYPE = 0
CLASSIFICATION_TYPE = U
NORAD_CAT_ID   = 67356
ELEMENT_SET_NO = 999
REV_AT_EPOCH   = 277
BSTAR          = -.69181568E-2
MEAN_MOTION_DOT = -.1651258E-1
MEAN_MOTION_DDOT = 0

CCSDS_OMM_VERS = 2.0
CREATION_DATE  = 
ORIGINATOR     = 

OBJECT_NAME    = STARLINK-36456
OBJECT_ID      = 2026-003Z
CENTER_NAME    = EARTH
REF_FRAME      = TEME
TIME_SYSTEM    = UTC
MEAN_ELEMENT_THEORY = SGP/SGP4

EPOCH          = 2026-01-19T14:00:01.999872
MEAN_MOTION    = 15.87458283
ECCENTRICITY   = .0001341
INCLINATION    = 42.9985
RA_OF_ASC_NODE = 151.0094
ARG_OF_PERICENTER = 281.1358
MEAN_ANOMALY   = 241.5024

EPHEMERIS_TYPE = 0
CLASSIFICATION_TYPE = U
NORAD_CAT_ID   = 67357
ELEMENT_SET_NO = 999
REV_AT_EPOCH   = 278
BSTAR          = -.6945052E-2
MEAN_MOTION_DOT = -.1658494E-1
MEAN_MOTION_DDOT = 0

CCSDS_OMM_VERS = 2.0
CREATION_DATE  = 
ORIGINATOR     = 

OBJECT_NAME    = STARLINK-36466
OBJECT_ID      = 2026-003AA
CENTER_NAME    = EARTH
REF_FRAME      = TEME
TIME_SYSTEM    = UTC
MEAN_ELEMENT_THEORY = SGP/SGP4

EPOCH          = 2026-01-19T14:00:01.999872
MEAN_MOTION    = 15.87461429
ECCENTRICITY   = .00011906
INCLINATION    = 42.9986
RA_OF_ASC_NODE = 151.0027
ARG_OF_PERICENTER = 279.1125
MEAN_ANOMALY   = 246.1133

EPHEMERIS_TYPE = 0
CLASSIFICATION_TYPE = U
NORAD_CAT_ID   = 67358
ELEMENT_SET_NO = 999
REV_AT_EPOCH   = 278
BSTAR          = -.70196085E-2
MEAN_MOTION_DOT = -.1674028E-1
MEAN_MOTION_DDOT = 0

CCSDS_OMM_VERS = 2.0
CREATION_DATE  = 
ORIGINATOR     = 

OBJECT_NAME    = STARLINK-36499
OBJECT_ID      = 2026-003AB
CENTER_NAME    = EARTH
REF_FRAME      = TEME
TIME_SYSTEM    = UTC
MEAN_ELEMENT_THEORY = SGP/SGP4

EPOCH          = 2026-01-19T14:00:01.999872
MEAN_MOTION    = 15.87473421
ECCENTRICITY   = .00013422
INCLINATION    = 42.9985
RA_OF_ASC_NODE = 150.9974
ARG_OF_PERICENTER = 277.2297
MEAN_ANOMALY   = 250.1152

EPHEMERIS_TYPE = 0
CLASSIFICATION_TYPE = U
NORAD_CAT_ID   = 67359
ELEMENT_SET_NO = 999
REV_AT_EPOCH   = 278
BSTAR          = -.70097305E-2
MEAN_MOTION_DOT = -.1673001E-1
MEAN_MOTION_DDOT = 0

CCSDS_OMM_VERS = 2.0
CREATION_DATE  = 
ORIGINATOR     = 

OBJECT_NAME    = STARLINK-36469
OBJECT_ID      = 2026-003AC
CENTER_NAME    = EARTH
REF_FRAME      = TEME
TIME_SYSTEM    = UTC
MEAN_ELEMENT_THEORY = SGP/SGP4

EPOCH          = 2026-01-19T14:00:01.999872
MEAN_MOTION    = 15.87478130
ECCENTRICITY   = .00013468
INCLINATION    = 42.9985
RA_OF_ASC_NODE = 150.9910
ARG_OF_PERICENTER = 276.7764
MEAN_ANOMALY   = 253.1121

EPHEMERIS_TYPE = 0
CLASSIFICATION_TYPE = U
NORAD_CAT_ID   = 67360
ELEMENT_SET_NO = 999
REV_AT_EPOCH   = 278
BSTAR          = -.70766743E-2
MEAN_MOTION_DOT = -.1687191E-1
MEAN_MOTION_DDOT = 0

CCSDS_OMM_VERS = 2.0
CREATION_DATE  = 
ORIGINATOR     = 

OBJECT_NAME    = STARLINK-35306
OBJECT_ID      = 2026-003AD
CENTER_NAME    = EARTH
REF_FRAME      = TEME
TIME_SYSTEM    = UTC
MEAN_ELEMENT_THEORY = SGP/SGP4

EPOCH          = 2026-01-19T14:00:01.999872
MEAN_MOTION    = 15.87487131
ECCENTRICITY   = .00013423
INCLINATION    = 42.9983
RA_OF_ASC_NODE = 150.9855
ARG_OF_PERICENTER = 279.4410
MEAN_ANOMALY   = 252.5076

EPHEMERIS_TYPE = 0
CLASSIFICATION_TYPE = U
NORAD_CAT_ID   = 67361
ELEMENT_SET_NO = 999
REV_AT_EPOCH   = 272
BSTAR          = -.7064275E-2
MEAN_MOTION_DOT = -.1685286E-1
MEAN_MOTION_DDOT = 0

